NORAD_CAT_ID,OBJECT_NAME,OBJECT_TYPE,EPOCH,MEAN_MOTION,ECCENTRICITY,INCLINATION,RA_OF_ASC_NODE,ARG_OF_PERICENTER,MEAN_ANOMALY,BSTAR,MEAN_MOTION_DOT,MEAN_MOTION_DDOT,TLE_LINE0,TLE_LINE1,TLE_LINE2,SEMIMAJOR_AXIS,PERIOD,APOGEE,PERIGEE,DECAYED
49454.0,STARLINK-3160,PAYLOAD,2021-12-12 20:00:01,15.72774709,0.0002588,53.218,347.9757,29.5273,10.003,0.0044363,0.00661463,0.0,0 STARLINK-3160,1 49454U 21104AY  21346.83334491  .00661463  00000-0  44363-2 0  9993,2 49454  53.2180 347.9757 0002588  29.5273  10.0030 15.72774709  5895,6729.108,91.558,352.714,349.231,0.0
49454.0,STARLINK-3160,PAYLOAD,2021-12-12 22:00:01,15.72990501,0.0002516,53.2176,347.5627,31.8298,119.8544,0.002436,0.00352845,0.0,0 STARLINK-3160,1 49454U 21104AY  21346.91668981  .00352845  00000-0  24360-2 0  9992,2 49454  53.2176 347.5627 0002516  31.8298 119.8544 15.72990501  3689,6728.493,91.545,352.05,348.665,0.0
49454.0,STARLINK-3160,PAYLOAD,2021-12-13 04:00:00,15.73205402,0.0002533,53.2195,346.3308,21.2062,107.2456,-0.00010751,-0.00015688,0.0,0 STARLINK-3160,1 49454U 21104AY  21347.16667824 -.00015688  00000-0 -10751-3 0  9998,2 49454  53.2195 346.3308 0002533  21.2062 107.2456 15.73205402  5948,6727.88,91.533,351.449,348.041,0.0
49454.0,STARLINK-3160,PAYLOAD,2021-12-13 14:00:01,15.73218174,0.0002706,53.219,344.2697,19.9698,309.6383,-1.6554e-05,-2.947e-05,0.0,0 STARLINK-3160,1 49454U 21104AY  21347.58334491 -.00002947  00000-0 -16554-4 0  9997,2 49454  53.2190 344.2697 0002706  19.9698 309.6383 15.73218174  3699,6727.843000000003,91.532,351.529,347.88800000000015,0.0
49454.0,STARLINK-3160,PAYLOAD,2021-12-13 22:00:00,15.73215477,0.0002486,53.219,342.6186,22.5751,35.9828,0.00014669,0.0002003,0.0,0 STARLINK-3160,1 49454U 21104AY  21347.91667824  .00020030  00000-0  14669-3 0  9998,2 49454  53.2190 342.6186 0002486  22.5751  35.9828 15.73215477  6069,6727.851,91.532,351.389,348.0440000000001,0.0
49454.0,STARLINK-3160,PAYLOAD,2021-12-14 04:00:00,15.73250115,0.000256,53.219,341.3829,19.9759,15.2985,-0.00075156,-0.00105037,0.0,0 STARLINK-3160,1 49454U 21104AY  21348.16667824 -.00105037  00000-0 -75156-3 0  9997,2 49454  53.2190 341.3829 0002560  19.9759  15.2985 15.73250115  6108,6727.752,91.53,351.34,347.895,0.0
49454.0,STARLINK-3160,PAYLOAD,2021-12-14 12:00:00,15.73179548,0.0002718,53.2186,339.7343,17.5569,106.6621,0.00027883,0.00038661,0.0,0 STARLINK-3160,1 49454U 21104AY  21348.50001157  .00038661  00000-0  27883-3 0  9996,2 49454  53.2186 339.7343 0002718  17.5569 106.6621 15.73179548  6150,6727.953,91.534,351.647,347.99,0.0
49454.0,STARLINK-3160,PAYLOAD,2021-12-14 14:00:01,15.73207355,0.0002657,53.2185,339.3213,17.8893,218.551,-8.2922e-05,-0.00012249,0.0,0 STARLINK-3160,1 49454U 21104AY  21348.58334491 -.00012249  00000-0 -82922-4 0  9996,2 49454  53.2185 339.3213 0002657  17.8893 218.5510 15.73207355  3713,6727.874,91.533,351.527,347.952,0.0
49454.0,STARLINK-3160,PAYLOAD,2021-12-14 20:00:01,15.73167676,0.0002475,53.2188,338.0827,18.7196,194.4109,0.00046744,0.00065408,0.0,0 STARLINK-3160,1 49454U 21104AY  21348.83334491  .00065408  00000-0  46744-3 0  9998,2 49454  53.2188 338.0827 0002475  18.7196 194.4109 15.73167676  6212,6727.986999999999,91.535,351.51800000000014,348.18699999999984,0.0
49454.0,STARLINK-3160,PAYLOAD,2021-12-14 22:00:00,15.73177445,0.0002478,53.2188,337.6701,20.5216,304.8346,0.00044306,0.00061965,0.0,0 STARLINK-3160,1 49454U 21104AY  21348.91667824  .00061965  00000-0  44306-3 0  9992,2 49454  53.2188 337.6701 0002478  20.5216 304.8346 15.73177445  3712,6727.959,91.534,351.492,348.157,0.0
49454.0,STARLINK-3160,PAYLOAD,2021-12-15 12:00:00,15.73222625,0.0002772,53.2187,334.7857,15.9855,15.0176,-0.00040898,-0.00057695,0.0,0 STARLINK-3160,1 49454U 21104AY  21349.50001157 -.00057695  00000-0 -40898-3 0  9998,2 49454  53.2187 334.7857 0002772  15.9855  15.0176 15.73222625  6317,6727.831,91.532,351.561,347.831,0.0
49454.0,STARLINK-3160,PAYLOAD,2021-12-15 14:22:36,15.7321014,0.0002693,53.2188,334.295,16.4024,215.7112,-0.00039116,-0.00055194,0.0,0 STARLINK-3160,1 49454U 21104AY  21349.59902778 -.00055194  00000-0 -39116-3 0  9999,2 49454  53.2188 334.2950 0002693  16.4024 215.7112 15.73210140  3699,6727.866,91.533,351.543,347.9190000000001,0.0
49454.0,STARLINK-3160,PAYLOAD,2021-12-15 20:00:01,15.73159242,0.0002496,53.2187,333.1343,16.9612,102.984,0.00047643,0.00066664,0.0,0 STARLINK-3160,1 49454U 21104AY  21349.83334491  .00066664  00000-0  47643-3 0  9993,2 49454  53.2187 333.1343 0002496  16.9612 102.9840 15.73159242  6368,6728.011,91.536,351.556,348.19699999999995,0.0
49454.0,STARLINK-3160,PAYLOAD,2021-12-15 22:00:01,15.73174736,0.0002487,53.2188,332.7218,18.4426,213.7888,0.00039219,0.00054725,0.0,0 STARLINK-3160,1 49454U 21104AY  21349.91668981  .00054725  00000-0  39219-3 0  9991,2 49454  53.2188 332.7218 0002487  18.4426 213.7888 15.73174736  3685,6727.967,91.535,351.505,348.159,0.0
49454.0,STARLINK-3160,PAYLOAD,2021-12-16 14:00:01,15.73276337,0.0002663,53.2184,329.4243,15.1203,34.9367,-0.00089361,-0.00124628,0.0,0 STARLINK-3160,1 49454U 21104AY  21350.58334491 -.00124628  00000-0 -89361-3 0  9997,2 49454  53.2184 329.4243 0002663  15.1203  34.9367 15.73276337  3691,6727.678000000001,91.529,351.334,347.751,0.0
49454.0,STARLINK-3160,PAYLOAD,2021-12-16 20:00:01,15.73183835,0.0002503,53.2185,328.1856,16.7227,10.082,0.00018975,0.00026076,0.0,0 STARLINK-3160,1 49454U 21104AY  21350.83334491  .00026076  00000-0  18975-3 0  9994,2 49454  53.2185 328.1856 0002503  16.7227  10.0820 15.73183835  6528,6727.941,91.534,351.49,348.122,0.0
49454.0,STARLINK-3160,PAYLOAD,2021-12-16 22:00:01,15.73213915,0.0002488,53.2187,327.7731,18.8675,120.2228,-0.00025047,-0.00035651,0.0,0 STARLINK-3160,1 49454U 21104AY  21350.91668981 -.00035651  00000-0 -25047-3 0  9996,2 49454  53.2187 327.7731 0002488  18.8675 120.2228 15.73213915  3682,6727.856,91.532,351.394,348.047,0.0
49454.0,STARLINK-3160,PAYLOAD,2021-12-17 05:02:06,15.73242535,0.0001886,53.2191,326.3236,13.8523,346.2548,0.00021964,0.00030373,0.0,0 STARLINK-3160,1 49454U 21104AY  21351.20980073  .00030373  00000-0  21964-3 0  9996,2 49454  53.2191 326.3236 0001886  13.8523 346.2548 15.73242535  6587,6727.774,91.531,350.908,348.37,0.0
49454.0,STARLINK-3160,PAYLOAD,2021-12-17 12:00:00,15.73184593,0.0002848,53.2186,324.8886,20.552,184.0703,0.00011241,0.00015174,0.0,0 STARLINK-3160,1 49454U 21104AY  21351.50001157  .00015174  00000-0  11241-3 0  9995,2 49454  53.2186 324.8886 0002848  20.5520 184.0703 15.73184593  6632,6727.939,91.534,351.72,347.88800000000015,0.0
49454.0,STARLINK-3160,PAYLOAD,2021-12-17 22:00:00,15.73226902,0.0002616,53.2189,322.8251,23.3824,22.3862,-0.00013547,-0.00019615,0.0,0 STARLINK-3160,1 49454U 21104AY  21351.91667824 -.00019615  00000-0 -13547-3 0  9996,2 49454  53.2189 322.8251 0002616  23.3824  22.3862 15.73226902  3717,6727.818,91.532,351.4430000000001,347.923,0.0
49454.0,STARLINK-3160,PAYLOAD,2021-12-18 14:00:01,15.73225233,0.0002651,53.2184,319.5273,18.3808,205.2424,-0.00024412,-0.00034785,0.0,0 STARLINK-3160,1 49454U 21104AY  21352.58334491 -.00034785  00000-0 -24412-3 0  9999,2 49454  53.2184 319.5273 0002651  18.3808 205.2424 15.73225233  3716,6727.823,91.532,351.472,347.905,0.0
49454.0,STARLINK-3160,PAYLOAD,2021-12-18 20:00:01,15.73269179,0.0002386,53.218,318.2859,22.419,177.9253,-0.00098275,-0.00136753,0.0,0 STARLINK-3160,1 49454U 21104AY  21352.83334491 -.00136753  00000-0 -98275-3 0  9993,2 49454  53.2180 318.2859 0002386  22.4190 177.9253 15.73269179  6842,6727.698,91.529,351.168,347.958,0.0
49454.0,STARLINK-3160,PAYLOAD,2021-12-18 22:00:00,15.73441819,0.0002367,53.218,317.8729,17.8586,294.6888,-0.0045673,-0.00604049,0.0,0 STARLINK-3160,1 49454U 21104AY  21352.91667824 -.00604049  00000-0 -45673-2 0  9992,2 49454  53.2180 317.8729 0002367  17.8586 294.6888 15.73441819  3705,6727.206,91.519,350.663,347.478,0.0
49454.0,STARLINK-3160,PAYLOAD,2021-12-19 14:00:01,15.73253716,0.0002646,53.2189,314.5788,15.173,115.2827,-0.00070569,-0.00098754,0.0,0 STARLINK-3160,1 49454U 21104AY  21353.58334491 -.00098754  00000-0 -70569-3 0  9990,2 49454  53.2189 314.5788 0002646  15.1730 115.2827 15.73253716  3680,6727.7419999999975,91.53,351.38699999999994,347.827,0.0
49454.0,STARLINK-3160,PAYLOAD,2021-12-19 20:00:01,15.73164578,0.0002482,53.2188,313.3407,15.4135,91.7581,0.00047364,0.00066282,0.0,0 STARLINK-3160,1 49454U 21104AY  21353.83334491  .00066282  00000-0  47364-3 0  9994,2 49454  53.2188 313.3407 0002482  15.4135  91.7581 15.73164578  6993,6727.996,91.535,351.531,348.191,0.0
49454.0,STARLINK-3160,PAYLOAD,2021-12-19 21:04:17,15.73229623,0.0002588,53.2187,313.1203,22.4687,337.6446,0.00021224,0.0002931,0.0,0 STARLINK-3160,1 49454U 21104AY  21353.87798016  .00029310  00000-0  21224-3 0  9993,2 49454  53.2187 313.1203 0002588  22.4687 337.6446 15.73229623  5928,6727.811,91.531,351.417,347.935,0.0
49454.0,STARLINK-3160,PAYLOAD,2021-12-20 12:00:00,15.73220987,0.0002608,53.2182,310.0435,11.3168,273.7298,0.00021124,0.00029157,0.0,0 STARLINK-3160,1 49454U 21104AY  21354.50001157  .00029157  00000-0  21124-3 0  9995,2 49454  53.2182 310.0435 0002608  11.3168 273.7298 15.73220987  7101,6727.835,91.532,351.455,347.946,0.0
49454.0,STARLINK-3160,PAYLOAD,2021-12-20 14:00:01,15.73225446,0.0002506,53.2185,309.6306,12.2209,25.0639,0.00027348,0.00037979,0.0,0 STARLINK-3160,1 49454U 21104AY  21354.58334491  .00037979  00000-0  27348-3 0  9998,2 49454  53.2185 309.6306 0002506  12.2209  25.0639 15.73225446  3702,6727.823,91.532,351.374,348.00199999999984,0.0
49454.0,STARLINK-3160,PAYLOAD,2021-12-20 19:56:29,15.73237893,0.0002492,53.2189,308.4052,8.7612,351.3452,0.00021732,0.00030039,0.0,0 STARLINK-3160,1 49454U 21104AY  21354.83089385  .00030039  00000-0  21732-3 0  9996,2 49454  53.2189 308.4052 0002492   8.7612 351.3452 15.73237893  6073,6727.7869999999975,91.531,351.329,347.976,0.0
